[{"OBJECT_NAME":"1998-067XK","OBJECT_ID":"1998-067XK","EPOCH":"2025-10-03T14:35:08.938176","MEAN_MOTION":15.53402939,"ECCENTRICITY":7.936e-5,"INCLINATION":51.6319,"RA_OF_ASC_NODE":129.4721,"ARG_OF_PERICENTER":233.5229,"MEAN_ANOMALY":126.5689,"EPHEMERIS_TYPE":0,"CLASSIFICATION_TYPE":"U","NORAD_CAT_ID":65731,"ELEMENT_SET_NO":999,"REV_AT_EPOCH":220,"BSTAR":0.0012306614,"MEAN_MOTION_DOT":0.00079667,"MEAN_MOTION_DDOT":0},{"OBJECT_NAME":"RSP-03","OBJECT_ID":"1998-067XL","EPOCH":"2025-10-04T22:58:43.513248","MEAN_MOTION":15.53887789,"ECCENTRICITY":9.08e-5,"INCLINATION":51.6311,"RA_OF_ASC_NODE":122.7344,"ARG_OF_PERICENTER":251.309,"MEAN_ANOMALY":108.7802,"EPHEMERIS_TYPE":0,"CLASSIFICATION_TYPE":"U","NORAD_CAT_ID":65732,"ELEMENT_SET_NO":999,"REV_AT_EPOCH":242,"BSTAR":0.0012102,"MEAN_MOTION_DOT":0.00079735,"MEAN_MOTION_DDOT":0},{"OBJECT_NAME":"1998-067XM","OBJECT_ID":"1998-067XM","EPOCH":"2025-10-05T20:31:38.849664","MEAN_MOTION":15.54519594,"ECCENTRICITY":0.0002354,"INCLINATION":51.6311,"RA_OF_ASC_NODE":118.2301,"ARG_OF_PERICENTER":111.8338,"MEAN_ANOMALY":248.2904,"EPHEMERIS_TYPE":0,"CLASSIFICATION_TYPE":"U","NORAD_CAT_ID":65733,"ELEMENT_SET_NO":999,"REV_AT_EPOCH":256,"BSTAR":0.00118,"MEAN_MOTION_DOT":0.00079558,"MEAN_MOTION_DDOT":0}]
