1998-067XK              
1 65731U 98067XK  25276.60774234  .00079667  00000+0  12307-2 0  9996
2 65731  51.6319 129.4721 0000793 233.5229 126.5689 15.53402939  2202
RSP-03                  
1 65732U 98067XL  25277.95744807  .00079735  00000+0  12102-2 0  9998
2 65732  51.6311 122.7344 0000908 251.3090 108.7802 15.53887789  2427
1998-067XM              
1 65733U 98067XM  25278.85531076  .00079558  00000+0  11800-2 0  9998
2 65733  51.6311 118.2301 0002354 111.8338 248.2904 15.54519594  2568
